[{"OBJECT_NAME":"HINODE (SOLAR-B)","OBJECT_ID":"2006-041A","EPOCH":"2026-03-09T23:31:46.832160","MEAN_MOTION":14.68474529,"ECCENTRICITY":0.00163234,"INCLINATION":98.0624,"RA_OF_ASC_NODE":86.5729,"ARG_OF_PERICENTER":240.6819,"MEAN_ANOMALY":119.2756,"EPHEMERIS_TYPE":0,"CLASSIFICATION_TYPE":"U","NORAD_CAT_ID":29479,"ELEMENT_SET_NO":999,"REV_AT_EPOCH":4031,"BSTAR":0.00015629545,"MEAN_MOTION_DOT":8.58e-6,"MEAN_MOTION_DDOT":0},{"OBJECT_NAME":"FENGYUN 1C DEB","OBJECT_ID":"1999-025ERS","EPOCH":"2026-03-06T04:23:41.047008","MEAN_MOTION":14.7474883,"ECCENTRICITY":0.00282228,"INCLINATION":98.9847,"RA_OF_ASC_NODE":53.1777,"ARG_OF_PERICENTER":162.8427,"MEAN_ANOMALY":197.3739,"EPHEMERIS_TYPE":0,"CLASSIFICATION_TYPE":"U","NORAD_CAT_ID":38169,"ELEMENT_SET_NO":999,"REV_AT_EPOCH":62497,"BSTAR":0.0025050637,"MEAN_MOTION_DOT":0.00016837,"MEAN_MOTION_DDOT":0}]
